     3.02           N: GNSS NAV DATA    M: Mixed            RINEX VERSION / TYPE
RTKCONV 2.4.3 b33                       20200602 075854 UTC PGM / RUN BY / DATE 
log: D:\Documents\Visual Studio 2019\rtklib_portToVS\rtkli  COMMENT             
format: u-blox                                              COMMENT             
                                                            END OF HEADER       
C13 2020  5 30 12  0  0  .463566160761E-03  .205639949513E-10  .000000000000E+00
      .100000000000E+01  .110953125000E+03  .133969866097E-08 -.183467392188E+01
      .367220491171E-05  .367279164493E-02  .248663127422E-06  .649362058067E+04
      .561600000000E+06 -.159721821547E-06  .311851219652E+01 -.317115336657E-06
      .995649228124E+00  .254734375000E+03 -.265567210311E+01 -.260010830495E-08
      .430375069706E-09  .000000000000E+00  .751000000000E+03  .100000000000E+01
      .200000000000E+01  .000000000000E+00 -.960000000000E-08  .240000000000E-08
      .563460000000E+06  .000000000000E+00
C16 2020  5 30 12  0  0 -.629984773695E-03  .992983473225E-11  .000000000000E+00
      .100000000000E+01 -.742343750000E+02  .105182952721E-08  .257014732283E+01
     -.185985118151E-05  .288259389345E-02  .316537916660E-04  .649340472603E+04
      .561600000000E+06 -.181607902050E-07 -.104043944655E+01  .313390046358E-06
      .960108758372E+00 -.739437500000E+03 -.258179217122E+01 -.175185868623E-08
      .509306928964E-09  .000000000000E+00  .751000000000E+03  .100000000000E+01
      .200000000000E+01  .000000000000E+00 -.300000000000E-08  .420000000000E-08
      .563460000000E+06  .000000000000E+00
C 6 2020  5 30 12  0  0  .742022879422E-03  .799982302624E-11  .000000000000E+00
      .100000000000E+01 -.596718750000E+02  .111754655030E-08  .227074920342E+01
     -.130431726575E-05  .954831414856E-02  .314526259899E-04  .649356722450E+04
      .561600000000E+06 -.512227416039E-08 -.102760154019E+01  .314321368933E-06
      .944731194041E+00 -.740312500000E+03 -.219717200634E+01 -.176435920693E-08
      .520735976458E-09  .000000000000E+00  .751000000000E+03  .100000000000E+01
      .200000000000E+01  .000000000000E+00  .840000000000E-08 -.180000000000E-08
      .563460000000E+06  .000000000000E+00
C 9 2020  5 30 12  0  0  .575732556172E-03  .256612509020E-10  .000000000000E+00
      .100000000000E+01 -.430781250000E+02  .111897518124E-08  .189763925604E+01
     -.679865479469E-06  .718060263898E-02  .310358591378E-04  .649380788994E+04
      .561600000000E+06 -.204890966415E-07 -.985378467963E+00  .363215804100E-06
      .949454083156E+00 -.735671875000E+03 -.232702367987E+01 -.182650465268E-08
      .530736393015E-09  .000000000000E+00  .751000000000E+03  .100000000000E+01
      .200000000000E+01  .000000000000E+00  .690000000000E-08  .340000000000E-08
      .563460000000E+06  .000000000000E+00
C 3 2020  5 30 12  0  0  .878189341165E-03  .128800081711E-09  .000000000000E+00
      .100000000000E+01  .176140625000E+03  .660956102903E-08  .185595909612E+01
      .585615634918E-05  .883908476681E-03 -.188709236681E-04  .649352089310E+04
      .561600000000E+06 -.277068465948E-06  .151762359363E+00  .293366611004E-07
      .619752019502E-01  .586078125000E+03 -.310836497686E+01 -.573202447611E-08
     -.140720147273E-09  .000000000000E+00  .751000000000E+03  .200000000000E+01
      .200000000000E+01  .000000000000E+00  .230000000000E-08 -.810000000000E-08
      .563460000000E+06  .000000000000E+00
C 2 2020  5 30 12  0  0  .316274468787E-03 -.255937493421E-10  .000000000000E+00
      .100000000000E+01  .492250000000E+03  .785354141724E-08  .279846767580E+01
      .158459879458E-04  .258666346781E-03 -.160993076861E-04  .649346196938E+04
      .561600000000E+06 -.474974513054E-07 -.398818693314E-01 -.195577740669E-07
      .562729491599E-01  .503031250000E+03  .196102238352E+01 -.685385691922E-08
     -.187150652719E-09  .000000000000E+00  .751000000000E+03  .200000000000E+01
      .200000000000E+01  .000000000000E+00  .120000000000E-08 -.137000000000E-07
      .563460000000E+06  .000000000000E+00
C 1 2020  5 30 12  0  0 -.465431832708E-03  .356328300199E-10  .000000000000E+00
      .100000000000E+01 -.166875000000E+02  .584131474278E-08  .963029535760E-01
     -.293832272291E-06  .574472011067E-03 -.180331990123E-04  .649357911491E+04
      .561600000000E+06 -.254716724157E-06  .249163003279E+00 -.391155481339E-07
      .100177435055E+00  .554546875000E+03 -.854094041725E+00 -.501413743038E-08
     -.171078554680E-09  .000000000000E+00  .751000000000E+03  .200000000000E+01
      .200000000000E+01  .000000000000E+00 -.520000000000E-08 -.102000000000E-07
      .563460000000E+06  .000000000000E+00
C 4 2020  5 30 12  0  0 -.192957697436E-03  .193383087321E-10  .000000000000E+00
      .100000000000E+01  .734843750000E+02  .590167439986E-08  .138416623373E+01
      .260071828961E-05  .290206517093E-03 -.163791701198E-04  .649345702934E+04
      .561600000000E+06 -.230967998505E-06  .188901361163E+00 -.148545950651E-06
      .748264471990E-01  .501671875000E+03 -.181081489687E+01 -.496342103212E-08
     -.171792870148E-09  .000000000000E+00  .751000000000E+03  .200000000000E+01
      .200000000000E+01  .000000000000E+00  .570000000000E-08 -.840000000000E-08
      .563460000000E+06  .000000000000E+00
C 5 2020  5 30 12  0  0 -.369820976630E-03 -.649649223305E-10  .000000000000E+00
      .000000000000E+00  .342703125000E+03  .648062708699E-08  .215445593218E+01
      .109686516225E-04  .485653523356E-03 -.177505426109E-04  .649354424095E+04
      .561600000000E+06 -.642612576485E-07  .131393410709E+00 -.325962901115E-07
      .621299801459E-01  .547078125000E+03  .199365982547E+01 -.562737725999E-08
     -.222152110670E-09  .000000000000E+00  .751000000000E+03  .200000000000E+01
      .200000000000E+01  .000000000000E+00  .100000000000E-09 -.930000000000E-08
      .563460000000E+06  .000000000000E+00
C30 2020  5 30 12  0  0  .324531574734E-03  .565059110613E-11  .000000000000E+00
      .110000000000E+02  .550468750000E+02  .359800701429E-08  .825469757112E+00
      .277720391750E-05  .470421276987E-03  .883871689439E-05  .528262162018E+04
      .561600000000E+06  .228174030781E-07  .233920911160E+01  .372529029846E-08
      .965173791843E+00  .182125000000E+03  .305828497247E+00 -.682992735103E-08
      .667884962947E-10  .000000000000E+00  .751000000000E+03  .100000000000E+01
      .200000000000E+01  .000000000000E+00 -.960000000000E-08 -.960000000000E-08
      .563580000000E+06  .120000000000E+02
C10 2020  5 30 12  0  0 -.275859143585E-03  .102371444655E-10  .000000000000E+00
      .100000000000E+01 -.122656250000E+02  .183364780736E-08  .254092811917E+00
     -.542961061001E-06  .647800834849E-02  .798935070634E-05  .649368372345E+04
      .561600000000E+06  .200234353542E-06  .978497177809E+00 -.117346644402E-06
      .900706176862E+00 -.364375000000E+02 -.262143683131E+01 -.253117686225E-08
     -.912180853137E-09  .000000000000E+00  .751000000000E+03  .100000000000E+01
      .200000000000E+01  .000000000000E+00  .620000000000E-08  .260000000000E-08
      .563730000000E+06  .000000000000E+00
